*******************************************************************************
 Revised: June 21, 2016                 Mars                            499 / 4
 
 PHYSICAL DATA (updated 2019-Oct-29):
  Vol. mean radius (km) = 3389.92+-0.04   Density (g/cm^3)      =  3.933(5+-4)
  Mass x10^23 (kg)      =    6.4171       Flattening, f         =  1/169.779
  Volume (x10^10 km^3)  =   16.318        Equatorial radius (km)=  3396.19
  Sidereal rot. period  =   24.622962 hr  Sid. rot. rate, rad/s =  0.0000708822 
  Mean solar day (sol)  =   88775.24415 s Polar gravity m/s^2   =  3.758
  Core radius (km)      = ~1700           Equ. gravity  m/s^2   =  3.71
  Geometric Albedo      =    0.150                                              

  GM (km^3/s^2)         = 42828.375214    Mass ratio (Sun/Mars) = 3098703.59
  GM 1-sigma (km^3/s^2) = +- 0.00028      Mass of atmosphere, kg= ~ 2.5 x 10^16
  Mean temperature (K)  =  210            Atmos. pressure (bar) =    0.0056 
  Obliquity to orbit    =   25.19 deg     Max. angular diam.    =  17.9"
  Mean sidereal orb per =    1.88081578 y Visual mag. V(1,0)    =  -1.52
  Mean sidereal orb per =  686.98 d       Orbital speed,  km/s  =  24.13
  Hill's sphere rad. Rp =  319.8          Escape speed, km/s    =   5.027
                                 Perihelion  Aphelion    Mean
  Solar Constant (W/m^2)         717         493         589
  Maximum Planetary IR (W/m^2)   470         315         390
  Minimum Planetary IR (W/m^2)    30          30          30
*******************************************************************************
 
 
*******************************************************************************
Ephemeris / WWW_USER Thu May  7 09:54:35 2020 Pasadena, USA      / Horizons    
*******************************************************************************
Target body name: Mars (499)                      {source: mar097}
Center body name: Sun (10)                        {source: mar097}
Center-site name: BODY CENTER
*******************************************************************************
Start time      : A.D. 1990-Jan-01 00:00:00.0000 TDB
Stop  time      : A.D. 2020-Jan-01 00:00:00.0000 TDB
Step-size       : 1440 minutes
*******************************************************************************
Center geodetic : 0.00000000,0.00000000,0.0000000 {E-lon(deg),Lat(deg),Alt(km)}
Center cylindric: 0.00000000,0.00000000,0.0000000 {E-lon(deg),Dxy(km),Dz(km)}
Center radii    : 696000.0 x 696000.0 x 696000.0 k{Equator, meridian, pole}    
Output units    : AU-D                                                         
Output type     : GEOMETRIC cartesian states
Output format   : 2 (position and velocity)
Reference frame : ICRF/J2000.0                                                 
Coordinate systm: Ecliptic and Mean Equinox of Reference Epoch                 
*******************************************************************************
            JDTDB,            Calendar Date (TDB),                      X,                      Y,                      Z,                     VX,                     VY,                     VZ,
**************************************************************************************************************************************************************************************************
$$SOE
2455845.500000000, A.D. 2011-Oct-11 00:00:00.0000, -2.327047131945860E-01,  1.572211231290459E+00,  3.865664054002388E-02, -1.331187546725891E-02, -8.602262866792235E-04,  3.088353289144053E-04,
2455846.500000000, A.D. 2011-Oct-12 00:00:00.0000, -2.460078608752531E-01,  1.571293164249683E+00,  3.896404956532738E-02, -1.329426292965088E-02, -9.758564716972802E-04,  3.059799570400950E-04,
2455847.500000000, A.D. 2011-Oct-13 00:00:00.0000, -2.592929258885354E-01,  1.570259622072683E+00,  3.926859492699639E-02, -1.327571096709456E-02, -1.091175546867505E-03,  3.031080370095406E-04,
2455848.500000000, A.D. 2011-Oct-14 00:00:00.0000, -2.725589713561485E-01,  1.569110918965075E+00,  3.957026020785229E-02, -1.325622466373679E-02, -1.206177307751270E-03,  3.002198263553144E-04,
2455849.500000000, A.D. 2011-Oct-15 00:00:00.0000, -2.858050654850300E-01,  1.567847375294635E+00,  3.986902924518775E-02, -1.323580911734902E-02, -1.320855634475193E-03,  2.973155824348188E-04,
2455850.500000000, A.D. 2011-Oct-16 00:00:00.0000, -2.990302815761511E-01,  1.566469317518536E+00,  4.016488612908833E-02, -1.321446943394087E-02, -1.435204486502498E-03,  2.943955604420144E-04,
2455851.500000000, A.D. 2011-Oct-17 00:00:00.0000, -3.122336980325530E-01,  1.564977078110399E+00,  4.045781520066025E-02, -1.319221071854389E-02, -1.549217892315853E-03,  2.914600097204591E-04,
2455852.500000000, A.D. 2011-Oct-18 00:00:00.0000, -3.254143983675440E-01,  1.563370995488494E+00,  4.074780105073703E-02, -1.316903807382678E-02, -1.662889941745763E-03,  2.885091737161956E-04,
2455853.500000000, A.D. 2011-Oct-19 00:00:00.0000, -3.385714712126563E-01,  1.561651413946062E+00,  4.103482851896233E-02, -1.314495660990630E-02, -1.776214787600339E-03,  2.855432950748174E-04,
2455854.500000000, A.D. 2011-Oct-20 00:00:00.0000, -3.517040103243035E-01,  1.559818683582887E+00,  4.131888269265602E-02, -1.311997145319634E-02, -1.889186650931795E-03,  2.825626202322086E-04,
2455855.500000000, A.D. 2011-Oct-21 00:00:00.0000, -3.648111145891044E-01,  1.557873160236540E+00,  4.159994890529006E-02, -1.309408774549496E-02, -2.001799822614381E-03,  2.795673994013067E-04,
2455856.500000000, A.D. 2011-Oct-22 00:00:00.0000, -3.778918880289206E-01,  1.555815205413165E+00,  4.187801273506308E-02, -1.306731063587264E-02, -2.114048664743192E-03,  2.765578828148399E-04,
2455857.500000000, A.D. 2011-Oct-23 00:00:00.0000, -3.909454398059979E-01,  1.553645186219188E+00,  4.215306000387809E-02, -1.303964527219518E-02, -2.225927614752599E-03,  2.735343163524523E-04,
2455858.500000000, A.D. 2011-Oct-24 00:00:00.0000, -4.039708842271791E-01,  1.551363475294964E+00,  4.242507677628993E-02, -1.301109679694437E-02, -2.337431184397679E-03,  2.704969394909267E-04,
2455859.500000000, A.D. 2011-Oct-25 00:00:00.0000, -4.169673407463040E-01,  1.548970450749857E+00,  4.269404935792231E-02, -1.298167034959315E-02, -2.448553947741352E-03,  2.674459873819663E-04,
2455860.500000000, A.D. 2011-Oct-26 00:00:00.0000, -4.299339339656341E-01,  1.546466496097501E+00,  4.295996429364576E-02, -1.295137107293092E-02, -2.559290529956179E-03,  2.643816951743654E-04,
2455861.500000000, A.D. 2011-Oct-27 00:00:00.0000, -4.428697936377528E-01,  1.543852000191050E+00,  4.322280836622257E-02, -1.292020411610432E-02, -2.669635609922523E-03,  2.613042998760600E-04,
2455862.500000000, A.D. 2011-Oct-28 00:00:00.0000, -4.557740546679613E-01,  1.541127357159416E+00,  4.348256859553014E-02, -1.288817463372924E-02, -2.779583931360680E-03,  2.582140394707110E-04,
2455863.500000000, A.D. 2011-Oct-29 00:00:00.0000, -4.686458571157942E-01,  1.538292966345107E+00,  4.373923223772387E-02, -1.285528778571071E-02, -2.889130310151181E-03,  2.551111525087620E-04,
2455864.500000000, A.D. 2011-Oct-30 00:00:00.0000, -4.814843461947956E-01,  1.535349232242730E+00,  4.399278678381072E-02, -1.282154873542256E-02, -2.998269633294584E-03,  2.519958774989885E-04,
2455865.500000000, A.D. 2011-Oct-31 00:00:00.0000, -4.942886722712480E-01,  1.532296564437156E+00,  4.424321995786872E-02, -1.278696264151324E-02, -3.106996852138695E-03,  2.488684494684349E-04,
2455866.500000000, A.D. 2011-Nov-01 00:00:00.0000, -5.070579908630173E-01,  1.529135377542048E+00,  4.449051971552663E-02, -1.275153464962827E-02, -3.215306973939879E-03,  2.457290964072975E-04,
2455867.500000000, A.D. 2011-Nov-02 00:00:00.0000, -5.197914626386410E-01,  1.525866091140293E+00,  4.473467424290799E-02, -1.271526989596200E-02, -3.323195057004897E-03,  2.425780413831819E-04,
2455868.500000000, A.D. 2011-Nov-03 00:00:00.0000, -5.324882534157684E-01,  1.522489129726407E+00,  4.497567195561099E-02, -1.267817351960970E-02, -3.430656212544079E-03,  2.394155088753333E-04,
2455869.500000000, A.D. 2011-Nov-04 00:00:00.0000, -5.451475341584407E-01,  1.519004922649264E+00,  4.521350149733021E-02, -1.264025066859457E-02, -3.537685607998221E-03,  2.362417280333096E-04,
2455870.500000000, A.D. 2011-Nov-05 00:00:00.0000, -5.577684809739200E-01,  1.515413904054129E+00,  4.544815173836514E-02, -1.260150649509082E-02, -3.644278468800251E-03,  2.330569305512359E-04,
2455871.500000000, A.D. 2011-Nov-06 00:00:00.0000, -5.703502751099140E-01,  1.511716512824867E+00,  4.567961177449430E-02, -1.256194614699359E-02, -3.750430082321344E-03,  2.298613463266000E-04,
2455872.500000000, A.D. 2011-Nov-07 00:00:00.0000, -5.828921029517041E-01,  1.507913192527754E+00,  4.590787092609622E-02, -1.252157476229594E-02, -3.856135801876365E-03,  2.266552003097277E-04,
2455873.500000000, A.D. 2011-Nov-08 00:00:00.0000, -5.953931560179144E-01,  1.504004391356994E+00,  4.613291873688521E-02, -1.248039746749982E-02, -3.961391041357643E-03,  2.234387119744074E-04,
2455874.500000000, A.D. 2011-Nov-09 00:00:00.0000, -6.078526309548711E-01,  1.499990562080843E+00,  4.635474497212537E-02, -1.243841938019612E-02, -4.066191260681976E-03,  2.202120976893793E-04,
2455875.500000000, A.D. 2011-Nov-10 00:00:00.0000, -6.202697295310389E-01,  1.495872161987674E+00,  4.657333961698999E-02, -1.239564561407050E-02, -4.170531958432859E-03,  2.169755740710889E-04,
2455876.500000000, A.D. 2011-Nov-11 00:00:00.0000, -6.326436586324626E-01,  1.491649652832610E+00,  4.678869287560452E-02, -1.235208128166903E-02, -4.274408679622143E-03,  2.137293591730007E-04,
2455877.500000000, A.D. 2011-Nov-12 00:00:00.0000, -6.449736302582947E-01,  1.487323500785607E+00,  4.700079517039916E-02, -1.230773149525495E-02, -4.377817026948339E-03,  2.104736722846626E-04,
